NORAD_CAT_ID,OBJECT_NAME,OBJECT_TYPE,EPOCH,MEAN_MOTION,ECCENTRICITY,INCLINATION,RA_OF_ASC_NODE,ARG_OF_PERICENTER,MEAN_ANOMALY,BSTAR,MEAN_MOTION_DOT,MEAN_MOTION_DDOT,TLE_LINE0,TLE_LINE1,TLE_LINE2,SEMIMAJOR_AXIS,PERIOD,APOGEE,PERIGEE,DECAYED
54086.0,STARLINK-5211,PAYLOAD,2023-03-11 17:42:27,15.08848883,0.000193,53.2182,190.1556,98.4576,261.6635,1.929e-05,1.9e-07,0.0,0 STARLINK-5211,1 54086U 22136AM  23070.73782182  .00000019  00000-0  19290-4 0  9992,2 54086  53.2182 190.1556 0001930  98.4576 261.6635 15.08848883 22517,6917.853,95.437,541.053,538.383,0.0
54086.0,STARLINK-5211,PAYLOAD,2023-03-12 08:00:56,15.08829974,0.0002231,53.2163,187.4793,101.7218,258.4024,9.8783e-05,1.284e-05,0.0,0 STARLINK-5211,1 54086U 22136AM  23071.33398663  .00001284  00000-0  98783-4 0  9995,2 54086  53.2163 187.4793 0002231 101.7218 258.4024 15.08829974 22600,6917.911,95.438,541.319,538.233,0.0
54086.0,STARLINK-5211,PAYLOAD,2023-03-12 17:33:12,15.08881397,0.0001426,53.2183,185.6969,106.6672,253.4477,0.00018462,2.655e-05,0.0,0 STARLINK-5211,1 54086U 22136AM  23071.73138916  .00002655  00000-0  18462-3 0  9990,2 54086  53.2183 185.6969 0001426 106.6672 253.4477 15.08881397 22660,6917.754,95.435,540.605,538.632,0.0
54086.0,STARLINK-5211,PAYLOAD,2023-03-13 07:51:44,15.08818355,0.000153,53.2184,183.0213,103.5173,256.599,-7.3148e-05,-1.451e-05,0.0,0 STARLINK-5211,1 54086U 22136AM  23072.32759805 -.00001451  00000-0 -73148-4 0  9990,2 54086  53.2184 183.0213 0001530 103.5173 256.5990 15.08818355 22751,6917.947,95.439,540.87,538.753,0.0
54086.0,STARLINK-5211,PAYLOAD,2023-03-13 14:13:17,15.0881996,0.0001012,53.2191,181.8316,98.3269,261.7838,-0.00017766,-3.112e-05,0.0,0 STARLINK-5211,1 54086U 22136AM  23072.59256343 -.00003112  00000-0 -17766-3 0  9997,2 54086  53.2191 181.8316 0001012  98.3269 261.7838 15.08819960 22326,6917.942,95.439,540.507,539.107,0.0
54086.0,STARLINK-5211,PAYLOAD,2023-03-14 06:07:10,15.08802865,7.6e-05,53.2196,178.8614,85.1087,274.9992,-0.00014389,-2.574e-05,0.0,0 STARLINK-5211,1 54086U 22136AM  23073.25498423 -.00002574  00000-0 -14389-3 0  9997,2 54086  53.2196 178.8614 0000760  85.1087 274.9992 15.08802865 22894,6917.994,95.44,540.385,539.333,0.0
54086.0,STARLINK-5211,PAYLOAD,2023-03-14 14:04:05,15.08835169,9.07e-05,53.2185,177.3743,85.0478,275.0617,-0.00028248,-4.78e-05,0.0,0 STARLINK-5211,1 54086U 22136AM  23073.58617445 -.00004780  00000-0 -28248-3 0  9990,2 54086  53.2185 177.3743 0000907  85.0478 275.0617 15.08835169 22940,6917.895,95.438,540.388,539.133,0.0
54086.0,STARLINK-5211,PAYLOAD,2023-03-15 05:57:55,15.0883675,1.56e-05,53.2185,174.3991,345.9231,14.1757,0.00032934,4.957e-05,0.0,0 STARLINK-5211,1 54086U 22136AM  23074.24855399  .00004957  00000-0  32934-3 0  9997,2 54086  53.2185 174.3991 0000156 345.9231  14.1757 15.08836750 23049,6917.89,95.438,539.863,539.647,0.0
54086.0,STARLINK-5211,PAYLOAD,2023-03-15 12:19:25,15.0886216,0.0001098,53.2199,173.2104,106.8626,253.2487,0.00053143,8.185e-05,0.0,0 STARLINK-5211,1 54086U 22136AM  23074.51349044  .00008185  00000-0  53143-3 0  9994,2 54086  53.2199 173.2104 0001098 106.8626 253.2487 15.08862160 23080,6917.813,95.436,540.437,538.918,0.0
54086.0,STARLINK-5211,PAYLOAD,2023-03-16 05:48:45,15.08800283,0.0001259,53.2185,169.9392,95.9476,264.1659,-0.00015335,-2.725e-05,0.0,0 STARLINK-5211,1 54086U 22136AM  23075.24219185 -.00002725  00000-0 -15335-3 0  9994,2 54086  53.2185 169.9392 0001259  95.9476 264.1659 15.08800283 23198,6918.002,95.44,540.738,538.996,0.0
54086.0,STARLINK-5211,PAYLOAD,2023-03-16 10:34:54,15.0880102,0.000108,53.2181,169.048,77.0921,283.0192,-0.00011113,-2.054e-05,0.0,0 STARLINK-5211,1 54086U 22136AM  23075.44091403 -.00002054  00000-0 -11113-3 0  9992,2 54086  53.2181 169.0480 0001080  77.0921 283.0192 15.08801020 22754,6918.0,95.44,540.612,539.117,0.0
54086.0,STARLINK-5211,PAYLOAD,2023-03-16 15:21:03,15.08814977,0.0001008,53.2176,168.1543,81.4504,278.6602,-4.7993e-05,-1.051e-05,0.0,0 STARLINK-5211,1 54086U 22136AM  23075.63962685 -.00001051  00000-0 -47993-4 0  9994,2 54086  53.2176 168.1543 0001008  81.4504 278.6602 15.08814977 23251,6917.957,95.439,540.519,539.125,0.0
54086.0,STARLINK-5211,PAYLOAD,2023-03-17 05:39:31,15.08839406,0.0001346,53.2168,165.4786,82.4475,277.667,-0.00027492,-4.661e-05,0.0,0 STARLINK-5211,1 54086U 22136AM  23076.23578252 -.00004661  00000-0 -27492-3 0  9995,2 54086  53.2168 165.4786 0001346  82.4475 277.6670 15.08839406 23342,6917.882,95.438,540.678,538.816,0.0
54086.0,STARLINK-5211,PAYLOAD,2023-03-17 12:01:04,15.08839394,9.9e-05,53.2181,164.2892,87.0909,273.0196,-0.00026103,-4.44e-05,0.0,0 STARLINK-5211,1 54086U 22136AM  23076.50074116 -.00004440  00000-0 -26103-3 0  9998,2 54086  53.2181 164.2892 0000990  87.0909 273.0196 15.08839394 22910,6917.882,95.438,540.432,539.062,0.0
54086.0,STARLINK-5211,PAYLOAD,2023-03-17 23:08:44,15.08850923,0.0001359,53.2192,162.2061,94.9062,265.2085,-7.7658e-05,-1.524e-05,0.0,0 STARLINK-5211,1 54086U 22136AM  23076.96440662 -.00001524  00000-0 -77658-4 0  9993,2 54086  53.2192 162.2061 0001359  94.9062 265.2085 15.08850923 23456,6917.847,95.437,540.652,538.772,0.0
54086.0,STARLINK-5211,PAYLOAD,2023-03-18 11:51:48,15.08850125,0.0001359,53.2173,159.8273,106.191,253.9231,0.00037954,5.759e-05,0.0,0 STARLINK-5211,1 54086U 22136AM  23077.49431299  .00005759  00000-0  37954-3 0  9994,2 54086  53.2173 159.8273 0001359 106.1910 253.9231 15.08850125 23530,6917.849,95.437,540.655,538.774,0.0
54086.0,STARLINK-5211,PAYLOAD,2023-03-18 15:02:34,15.08852718,0.000139,53.217,159.232,108.9022,251.2121,0.00038836,5.9e-05,0.0,0 STARLINK-5211,1 54086U 22136AM  23077.62679039  .00005900  00000-0  38836-3 0  9993,2 54086  53.2170 159.2320 0001390 108.9022 251.2121 15.08852718 23082,6917.842,95.437,540.668,538.745,0.0
54086.0,STARLINK-5211,PAYLOAD,2023-03-19 05:21:05,15.08838539,0.0001126,53.2202,156.5574,95.705,264.4071,-1.8041e-05,-5.75e-06,0.0,0 STARLINK-5211,1 54086U 22136AM  23078.22297525 -.00000575  00000-0 -18041-4 0  9998,2 54086  53.2202 156.5574 0001126  95.7050 264.4071 15.08838539 23647,6917.885,95.438,540.529,538.971,0.0
54086.0,STARLINK-5211,PAYLOAD,2023-03-19 11:42:37,15.08839443,0.0001047,53.2187,155.3691,87.7979,272.3133,6.8398e-05,8.01e-06,0.0,0 STARLINK-5211,1 54086U 22136AM  23078.48793135  .00000801  00000-0  68398-4 0  9994,2 54086  53.2187 155.3691 0001047  87.7979 272.3133 15.08839443 23214,6917.882,95.438,540.471,539.023,0.0
54086.0,STARLINK-5211,PAYLOAD,2023-03-19 14:53:23,15.08841914,0.0001089,53.2177,154.7734,88.6652,271.4465,8.4578e-05,1.059e-05,0.0,0 STARLINK-5211,1 54086U 22136AM  23078.62040899  .00001059  00000-0  84578-4 0  9996,2 54086  53.2177 154.7734 0001089  88.6652 271.4465 15.08841914 23706,6917.875,95.437,540.493,538.986,0.0
54086.0,STARLINK-5211,PAYLOAD,2023-03-20 11:33:23,15.08858568,0.0001077,53.2173,150.9066,87.6788,272.4327,-0.00010071,-1.891e-05,0.0,0 STARLINK-5211,1 54086U 22136AM  23079.48151844 -.00001891  00000-0 -10071-3 0  9996,2 54086  53.2173 150.9066 0001077  87.6788 272.4327 15.08858568 23839,6917.824,95.436,540.434,538.944,0.0
54086.0,STARLINK-5211,PAYLOAD,2023-03-21 08:13:24,15.08831802,0.0001062,53.2187,147.0433,81.6549,278.4564,0.00011393,1.525e-05,0.0,0 STARLINK-5211,1 54086U 22136AM  23080.34264779  .00001525  00000-0  11393-3 0  9995,2 54086  53.2187 147.0433 0001062  81.6549 278.4564 15.08831802 23967,6917.905,95.438,540.505,539.036,0.0
54086.0,STARLINK-5211,PAYLOAD,2023-03-21 11:24:10,15.08842481,0.0001043,53.2177,146.447,80.2843,279.8267,4.7303e-05,4.65e-06,0.0,0 STARLINK-5211,1 54086U 22136AM  23080.47512305  .00000465  00000-0  47303-4 0  9993,2 54086  53.2177 146.4470 0001043  80.2843 279.8267 15.08842481 23512,6917.873,95.437,540.459,539.016,0.0
54086.0,STARLINK-5211,PAYLOAD,2023-03-21 20:56:29,15.08840006,0.0001089,53.2182,144.6641,77.469,282.6424,-3.0565e-05,-7.74e-06,0.0,0 STARLINK-5211,1 54086U 22136AM  23080.87256668 -.00000774  00000-0 -30565-4 0  9991,2 54086  53.2182 144.6641 0001089  77.4690 282.6424 15.08840006 23570,6917.88,95.438,540.499,538.992,0.0
54086.0,STARLINK-5211,PAYLOAD,2023-03-22 11:14:58,15.08840511,0.0001267,53.2194,141.9895,84.8564,275.2573,-2.2966e-05,-6.53e-06,0.0,0 STARLINK-5211,1 54086U 22136AM  23081.46872907 -.00000653  00000-0 -22966-4 0  9999,2 54086  53.2194 141.9895 0001267  84.8564 275.2573 15.08840511 24131,6917.879,95.438,540.62,538.867,0.0
54086.0,STARLINK-5211,PAYLOAD,2023-03-22 20:47:16,15.088438,0.0001301,53.2191,140.2052,79.8592,280.2547,-8.2773e-06,-4.2e-06,0.0,0 STARLINK-5211,1 54086U 22136AM  23081.86616636 -.00000420  00000-0 -82773-5 0  9993,2 54086  53.2191 140.2052 0001301  79.8592 280.2547 15.08843800 23724,6917.869,95.437,540.634,538.834,0.0
54086.0,STARLINK-5211,PAYLOAD,2023-03-23 11:05:44,15.08846446,0.0001248,53.2192,137.5287,86.0643,274.0492,0.00011253,1.504e-05,0.0,0 STARLINK-5211,1 54086U 22136AM  23082.46232290  .00001504  00000-0  11253-3 0  9995,2 54086  53.2192 137.5287 0001248  86.0643 274.0492 15.08846446 23810,6917.861,95.437,540.589,538.862,0.0
54086.0,STARLINK-5211,PAYLOAD,2023-03-23 20:38:03,15.08851224,0.0001371,53.2188,135.7449,110.4284,249.6856,-7.0807e-05,-1.415e-05,0.0,0 STARLINK-5211,1 54086U 22136AM  23082.85976229 -.00001415  00000-0 -70807-4 0  9999,2 54086  53.2188 135.7449 0001371 110.4284 249.6856 15.08851224 24346,6917.846,95.437,540.66,538.763,0.0
54086.0,STARLINK-5211,PAYLOAD,2023-03-24 04:34:59,15.08842677,0.0001356,53.219,134.2576,90.7669,269.3478,0.00015236,2.138e-05,0.0,0 STARLINK-5211,1 54086U 22136AM  23083.19096663  .00002138  00000-0  15236-3 0  9997,2 54086  53.2190 134.2576 0001356  90.7669 269.3478 15.08842677 24390,6917.872,95.437,540.675,538.799,0.0
54086.0,STARLINK-5211,PAYLOAD,2023-03-24 10:56:31,15.08853461,0.0001523,53.2188,133.0669,100.0798,260.0366,0.00019953,2.89e-05,0.0,0 STARLINK-5211,1 54086U 22136AM  23083.45591607  .00002890  00000-0  19953-3 0  9999,2 54086  53.2188 133.0669 0001523 100.0798 260.0366 15.08853461 24433,6917.839,95.437,540.758,538.651,0.0
